[{"OBJECT_NAME":"STARLINK-33586","OBJECT_ID":"2025-035X","EPOCH":"2025-09-24T07:05:08.617632","MEAN_MOTION":15.27532856,"ECCENTRICITY":0.00013176,"INCLINATION":43.0032,"RA_OF_ASC_NODE":359.7001,"ARG_OF_PERICENTER":246.9733,"MEAN_ANOMALY":113.098,"EPHEMERIS_TYPE":0,"CLASSIFICATION_TYPE":"U","NORAD_CAT_ID":63073,"ELEMENT_SET_NO":999,"REV_AT_EPOCH":3436,"BSTAR":0.0018547539,"MEAN_MOTION_DOT":0.00051057,"MEAN_MOTION_DDOT":0},{"OBJECT_NAME":"STARLINK-33605","OBJECT_ID":"2025-035Y","EPOCH":"2025-09-26T17:05:41.766144","MEAN_MOTION":15.27602146,"ECCENTRICITY":9.67e-5,"INCLINATION":42.9992,"RA_OF_ASC_NODE":352.9458,"ARG_OF_PERICENTER":249.8537,"MEAN_ANOMALY":110.221,"EPHEMERIS_TYPE":0,"CLASSIFICATION_TYPE":"U","NORAD_CAT_ID":63074,"ELEMENT_SET_NO":999,"REV_AT_EPOCH":3464,"BSTAR":0.00076771173,"MEAN_MOTION_DOT":0.00020938,"MEAN_MOTION_DDOT":0},{"OBJECT_NAME":"STARLINK-32839","OBJECT_ID":"2025-037A","EPOCH":"2025-09-26T19:39:30.468960","MEAN_MOTION":14.98335412,"ECCENTRICITY":0.00032222,"INCLINATION":70.0031,"RA_OF_ASC_NODE":47.7228,"ARG_OF_PERICENTER":266.6036,"MEAN_ANOMALY":93.4755,"EPHEMERIS_TYPE":0,"CLASSIFICATION_TYPE":"U","NORAD_CAT_ID":63077,"ELEMENT_SET_NO":999,"REV_AT_EPOCH":3404,"BSTAR":0.00076057827,"MEAN_MOTION_DOT":8.995e-5,"MEAN_MOTION_DDOT":0},{"OBJECT_NAME":"STARLINK-32821","OBJECT_ID":"2025-037B","EPOCH":"2025-09-26T19:39:15.508800","MEAN_MOTION":14.98346638,"ECCENTRICITY":0.00035232,"INCLINATION":70.0023,"RA_OF_ASC_NODE":47.7161,"ARG_OF_PERICENTER":272.8322,"MEAN_ANOMALY":87.2434,"EPHEMERIS_TYPE":0,"CLASSIFICATION_TYPE":"U","NORAD_CAT_ID":63078,"ELEMENT_SET_NO":999,"REV_AT_EPOCH":3404,"BSTAR":0.00079615287,"MEAN_MOTION_DOT":9.424e-5,"MEAN_MOTION_DDOT":0},{"OBJECT_NAME":"STARLINK-32817","OBJECT_ID":"2025-037C","EPOCH":"2025-09-26T15:44:55.094208","MEAN_MOTION":14.98343694,"ECCENTRICITY":0.00030959,"INCLINATION":70.0033,"RA_OF_ASC_NODE":47.9518,"ARG_OF_PERICENTER":269.5608,"MEAN_ANOMALY":90.5196,"EPHEMERIS_TYPE":0,"CLASSIFICATION_TYPE":"U","NORAD_CAT_ID":63079,"ELEMENT_SET_NO":999,"REV_AT_EPOCH":3402,"BSTAR":0.00061461157,"MEAN_MOTION_DOT":7.251e-5,"MEAN_MOTION_DDOT":0},{"OBJECT_NAME":"STARLINK-32906","OBJECT_ID":"2025-037D","EPOCH":"2025-09-26T16:51:16.420032","MEAN_MOTION":14.98332012,"ECCENTRICITY":0.00033351,"INCLINATION":70.0038,"RA_OF_ASC_NODE":48.113,"ARG_OF_PERICENTER":265.6322,"MEAN_ANOMALY":94.4456,"EPHEMERIS_TYPE":0,"CLASSIFICATION_TYPE":"U","NORAD_CAT_ID":63080,"ELEMENT_SET_NO":999,"REV_AT_EPOCH":3403,"BSTAR":0.00034960971,"MEAN_MOTION_DOT":4.081e-5,"MEAN_MOTION_DDOT":0},{"OBJECT_NAME":"STARLINK-32895","OBJECT_ID":"2025-037E","EPOCH":"2025-09-26T18:21:08.794368","MEAN_MOTION":14.9837438,"ECCENTRICITY":0.00035438,"INCLINATION":70.0036,"RA_OF_ASC_NODE":47.9338,"ARG_OF_PERICENTER":260.8321,"MEAN_ANOMALY":99.2438,"EPHEMERIS_TYPE":0,"CLASSIFICATION_TYPE":"U","NORAD_CAT_ID":63081,"ELEMENT_SET_NO":999,"REV_AT_EPOCH":3390,"BSTAR":0.0025458164,"MEAN_MOTION_DOT":0.00030452,"MEAN_MOTION_DDOT":0},{"OBJECT_NAME":"STARLINK-32933","OBJECT_ID":"2025-037F","EPOCH":"2025-09-26T19:21:28.245888","MEAN_MOTION":14.98344712,"ECCENTRICITY":0.00033319,"INCLINATION":70.0031,"RA_OF_ASC_NODE":47.6709,"ARG_OF_PERICENTER":271.039,"MEAN_ANOMALY":89.0387,"EPHEMERIS_TYPE":0,"CLASSIFICATION_TYPE":"U","NORAD_CAT_ID":63082,"ELEMENT_SET_NO":999,"REV_AT_EPOCH":3399,"BSTAR":0.00080911464,"MEAN_MOTION_DOT":9.578e-5,"MEAN_MOTION_DDOT":0},{"OBJECT_NAME":"STARLINK-32932","OBJECT_ID":"2025-037G","EPOCH":"2025-09-26T19:27:14.315904","MEAN_MOTION":14.98340407,"ECCENTRICITY":0.00033681,"INCLINATION":70.0031,"RA_OF_ASC_NODE":47.6916,"ARG_OF_PERICENTER":270.0935,"MEAN_ANOMALY":89.9838,"EPHEMERIS_TYPE":0,"CLASSIFICATION_TYPE":"U","NORAD_CAT_ID":63083,"ELEMENT_SET_NO":999,"REV_AT_EPOCH":3391,"BSTAR":0.0004251137,"MEAN_MOTION_DOT":4.984e-5,"MEAN_MOTION_DDOT":0},{"OBJECT_NAME":"STARLINK-32908","OBJECT_ID":"2025-037H","EPOCH":"2025-09-26T19:15:13.415904","MEAN_MOTION":14.98367637,"ECCENTRICITY":0.0003399,"INCLINATION":70.0031,"RA_OF_ASC_NODE":47.6591,"ARG_OF_PERICENTER":271.1705,"MEAN_ANOMALY":88.9065,"EPHEMERIS_TYPE":0,"CLASSIFICATION_TYPE":"U","NORAD_CAT_ID":63084,"ELEMENT_SET_NO":999,"REV_AT_EPOCH":3391,"BSTAR":0.00088084447,"MEAN_MOTION_DOT":0.00010443,"MEAN_MOTION_DDOT":0},{"OBJECT_NAME":"STARLINK-32505","OBJECT_ID":"2025-037J","EPOCH":"2025-09-26T18:21:24.756768","MEAN_MOTION":14.98307614,"ECCENTRICITY":0.00031266,"INCLINATION":70.0034,"RA_OF_ASC_NODE":47.9314,"ARG_OF_PERICENTER":268.8687,"MEAN_ANOMALY":91.2114,"EPHEMERIS_TYPE":0,"CLASSIFICATION_TYPE":"U","NORAD_CAT_ID":63085,"ELEMENT_SET_NO":999,"REV_AT_EPOCH":3399,"BSTAR":-0.00043837085,"MEAN_MOTION_DOT":-5.317e-5,"MEAN_MOTION_DDOT":0},{"OBJECT_NAME":"STARLINK-32914","OBJECT_ID":"2025-037K","EPOCH":"2025-09-26T19:21:13.813632","MEAN_MOTION":14.98345758,"ECCENTRICITY":0.00031831,"INCLINATION":70.0032,"RA_OF_ASC_NODE":47.6707,"ARG_OF_PERICENTER":271.9079,"MEAN_ANOMALY":88.1716,"EPHEMERIS_TYPE":0,"CLASSIFICATION_TYPE":"U","NORAD_CAT_ID":63086,"ELEMENT_SET_NO":999,"REV_AT_EPOCH":3405,"BSTAR":0.00074435678,"MEAN_MOTION_DOT":8.803e-5,"MEAN_MOTION_DDOT":0},{"OBJECT_NAME":"STARLINK-32918","OBJECT_ID":"2025-037L","EPOCH":"2025-09-26T19:45:17.627616","MEAN_MOTION":14.98332087,"ECCENTRICITY":0.00032921,"INCLINATION":70.0028,"RA_OF_ASC_NODE":47.7318,"ARG_OF_PERICENTER":275.4574,"MEAN_ANOMALY":84.621,"EPHEMERIS_TYPE":0,"CLASSIFICATION_TYPE":"U","NORAD_CAT_ID":63087,"ELEMENT_SET_NO":999,"REV_AT_EPOCH":3414,"BSTAR":0.00082232772,"MEAN_MOTION_DOT":9.733e-5,"MEAN_MOTION_DDOT":0},{"OBJECT_NAME":"STARLINK-32912","OBJECT_ID":"2025-037M","EPOCH":"2025-09-26T17:03:15.591168","MEAN_MOTION":14.98318069,"ECCENTRICITY":0.00033189,"INCLINATION":70.0035,"RA_OF_ASC_NODE":47.7454,"ARG_OF_PERICENTER":268.6399,"MEAN_ANOMALY":91.438,"EPHEMERIS_TYPE":0,"CLASSIFICATION_TYPE":"U","NORAD_CAT_ID":63088,"ELEMENT_SET_NO":999,"REV_AT_EPOCH":3414,"BSTAR":0.00041407552,"MEAN_MOTION_DOT":4.85e-5,"MEAN_MOTION_DDOT":0},{"OBJECT_NAME":"STARLINK-32910","OBJECT_ID":"2025-037N","EPOCH":"2025-09-26T19:27:28.812960","MEAN_MOTION":14.9833558,"ECCENTRICITY":0.00033807,"INCLINATION":70.0031,"RA_OF_ASC_NODE":47.6865,"ARG_OF_PERICENTER":269.984,"MEAN_ANOMALY":90.0932,"EPHEMERIS_TYPE":0,"CLASSIFICATION_TYPE":"U","NORAD_CAT_ID":63089,"ELEMENT_SET_NO":999,"REV_AT_EPOCH":3405,"BSTAR":0.00052380029,"MEAN_MOTION_DOT":6.163e-5,"MEAN_MOTION_DDOT":0},{"OBJECT_NAME":"STARLINK-32903","OBJECT_ID":"2025-037P","EPOCH":"2025-09-26T15:20:52.876032","MEAN_MOTION":14.9836413,"ECCENTRICITY":0.0003082,"INCLINATION":70.0032,"RA_OF_ASC_NODE":47.9002,"ARG_OF_PERICENTER":272.807,"MEAN_ANOMALY":87.2737,"EPHEMERIS_TYPE":0,"CLASSIFICATION_TYPE":"U","NORAD_CAT_ID":63090,"ELEMENT_SET_NO":999,"REV_AT_EPOCH":3389,"BSTAR":0.00081755848,"MEAN_MOTION_DOT":9.684e-5,"MEAN_MOTION_DDOT":0}]
