STARLINK-33586          
1 63073U 25035X   25267.29523863  .00051057  00000+0  18548-2 0  9999
2 63073  43.0032 359.7001 0001317 246.9733 113.0980 15.27532856 34366
STARLINK-33605          
1 63074U 25035Y   25269.71228896  .00020938  00000+0  76771-3 0  9994
2 63074  42.9992 352.9458 0000967 249.8537 110.2210 15.27602146 34641
STARLINK-32839          
1 63077U 25037A   25269.81910265  .00008995  00000+0  76058-3 0  9995
2 63077  70.0031  47.7228 0003222 266.6036  93.4755 14.98335412 34048
STARLINK-32821          
1 63078U 25037B   25269.81892950  .00009424  00000+0  79615-3 0  9996
2 63078  70.0023  47.7161 0003523 272.8322  87.2434 14.98346638 34044
STARLINK-32817          
1 63079U 25037C   25269.65619322  .00007251  00000+0  61461-3 0  9995
2 63079  70.0033  47.9518 0003095 269.5608  90.5196 14.98343694 34027
STARLINK-32906          
1 63080U 25037D   25269.70227338  .00004081  00000+0  34961-3 0  9998
2 63080  70.0038  48.1130 0003335 265.6322  94.4456 14.98332012 34039
STARLINK-32895          
1 63081U 25037E   25269.76468512  .00030452  00000+0  25458-2 0  9997
2 63081  70.0036  47.9338 0003543 260.8321  99.2438 14.98374380 33904
STARLINK-32933          
1 63082U 25037F   25269.80657692  .00009578  00000+0  80911-3 0  9993
2 63082  70.0031  47.6709 0003331 271.0390  89.0387 14.98344712 33999
STARLINK-32932          
1 63083U 25037G   25269.81058236  .00004984  00000+0  42511-3 0  9994
2 63083  70.0031  47.6916 0003368 270.0935  89.9838 14.98340407 33913
STARLINK-32908          
1 63084U 25037H   25269.80223861  .00010443  00000+0  88084-3 0  9994
2 63084  70.0031  47.6591 0003399 271.1705  88.9065 14.98367637 33919
STARLINK-32505          
1 63085U 25037J   25269.76486987 -.00005317  00000+0 -43837-3 0  9993
2 63085  70.0034  47.9314 0003126 268.8687  91.2114 14.98307614 33998
STARLINK-32914          
1 63086U 25037K   25269.80640988  .00008803  00000+0  74436-3 0  9992
2 63086  70.0032  47.6707 0003183 271.9079  88.1716 14.98345758 34055
STARLINK-32918          
1 63087U 25037L   25269.82312069  .00009733  00000+0  82233-3 0  9998
2 63087  70.0028  47.7318 0003292 275.4574  84.6210 14.98332087 34141
STARLINK-32912          
1 63088U 25037M   25269.71059712  .00004850  00000+0  41408-3 0  9994
2 63088  70.0035  47.7454 0003318 268.6399  91.4380 14.98318069 34147
STARLINK-32910          
1 63089U 25037N   25269.81075015  .00006163  00000+0  52380-3 0  9990
2 63089  70.0031  47.6865 0003380 269.9840  90.0932 14.98335580 34058
STARLINK-32903          
1 63090U 25037P   25269.63950088  .00009684  00000+0  81756-3 0  9994
2 63090  70.0032  47.9002 0003082 272.8070  87.2737 14.98364130 33899
